OBJECT_NAME,OBJECT_ID,EPOCH,MEAN_MOTION,ECCENTRICITY,INCLINATION,RA_OF_ASC_NODE,ARG_OF_PERICENTER,MEAN_ANOMALY,EPHEMERIS_TYPE,CLASSIFICATION_TYPE,NORAD_CAT_ID,ELEMENT_SET_NO,REV_AT_EPOCH,BSTAR,MEAN_MOTION_DOT,MEAN_MOTION_DDOT
KOREASAT 5A,2017-067A,2026-06-05T00:21:57.121344,1.00270134,.0001045,0.0202,297.9859,134.5489,299.5580,0,U,42984,999,3140,0,-.346E-5,0
ALCOMSAT 1,2017-078A,2026-06-04T23:42:35.647776,1.00269664,.0002671,0.0223,48.8614,15.2922,160.0970,0,U,43039,999,3117,0,-.174E-5,0
SBIRS GEO-3 (USA 282),2018-009A,2026-06-05T00:46:54.727104,1.00272920,.0002298,2.1753,11.5098,59.1240,35.1728,0,U,43162,999,3072,0,.14E-5,0
AL YAH 3,2018-012A,2026-06-05T03:09:20.311776,1.00272412,.0004324,1.5203,83.2531,351.5067,206.0511,0,U,43174,999,3072,0,-.143E-5,0
SES-14,2018-012B,2026-06-04T09:54:49.779360,1.00270794,.00012808,0.0211,25.8120,50.2092,278.0489,0,U,43175,999,689,0,-.266E-5,0
GOES 17,2018-022A,2026-06-05T01:06:52.810848,1.00271493,.0000732,0.9065,85.9382,7.4913,87.2861,0,U,43226,999,3030,0,-.17E-5,0
HISPASAT 30W-6,2018-023A,2026-06-04T15:07:52.950144,1.00271231,.00064526,0.0452,40.5622,24.1077,25.3803,0,U,43228,999,3028,0,-.204E-5,0
SUPERBIRD-B3,2018-033A,2026-06-05T02:18:27.321984,1.00272316,.0001378,0.0106,27.4113,50.7008,12.0486,0,U,43271,999,2994,0,-.8E-6,0
HYLAS 4,2018-033B,2026-06-04T15:06:53.046432,1.00271591,.0001512,0.0265,66.4829,15.5821,4.2782,0,U,43272,999,2994,0,-.221E-5,0
IRNSS-1I,2018-035A,2026-06-03T20:42:40.244256,1.00268957,.0018238,28.7232,74.4103,238.1364,305.5602,0,U,43286,999,2994,0,.83E-6,0
USA 283,2018-036A,2026-06-04T10:46:37.311744,1.00268935,.0000547,0.0148,344.8211,104.8728,98.9470,0,U,43339,999,2516,0,0,0
COSMOS 2526,2018-037A,2026-06-04T07:19:32.089728,1.00268408,.00006426,0.0206,11.6229,239.0908,239.9729,0,U,43432,999,2983,0,-.333E-5,0
APSTAR-6C,2018-041A,2026-06-04T20:28:38.610624,1.00269696,.0001131,0.0321,316.1439,57.2075,321.0883,0,U,43450,999,2968,0,-.306E-5,0
BANGABANDHUSAT-1,2018-044A,2026-06-05T00:23:26.978208,1.00269267,.000202,0.0300,81.1446,352.8606,304.3990,0,U,43463,999,2958,0,-.35E-5,0
SES-12,2018-049A,2026-06-04T21:36:21.822912,1.00272363,.000082,0.0309,48.8755,262.7686,0.7958,0,U,43488,999,2929,0,-.258E-5,0
FENGYUN 2H,2018-050A,2026-06-05T01:54:59.573088,1.00271930,.0001424,3.0002,79.2144,127.3189,155.1892,0,U,43491,999,2931,0,-.119E-5,0
BEIDOU-2 IGSO-7,2018-057A,2026-06-04T22:38:27.947328,1.00255284,.0104565,55.1930,163.1644,237.9031,302.7938,0,U,43539,999,2900,0,-.1E-7,0
TELSTAR 19V,2018-059A,2026-06-04T16:42:48.204864,1.00272219,.00027731,0.0098,96.7002,4.2518,339.8830,0,U,43562,999,2901,0,-.268E-5,0
TELKOM 4 (MERAH PUTIH),2018-064A,2026-06-04T19:26:12.118272,1.00270736,.0001651,0.0160,293.1908,167.6030,191.9996,0,U,43587,999,2875,0,-.332E-5,0
TELSTAR 18V,2018-069A,2026-06-05T00:29:03.939072,1.00271616,.000208,0.0190,288.5185,143.9459,326.2785,0,U,43611,999,2851,0,-.281E-5,0
AZERSPACE 2 (IS-38),2018-074A,2026-06-04T12:03:57.159360,1.00272076,.00016543,0.0013,357.4289,67.8132,53.8049,0,U,43632,999,2832,0,.148E-5,0
HORIZONS-3E,2018-074B,2026-06-04T14:46:38.428320,1.00270803,.00007507,0.0181,149.5538,123.5060,10.6575,0,U,43633,999,2821,0,-.19E-6,0
AEHF-4 (USA 288),2018-079A,2026-06-05T03:48:38.407968,1.00277866,.0060759,1.4286,2.9259,357.2270,242.9378,0,U,43651,999,2817,0,-.263E-5,0
BEIDOU-3 G1,2018-085A,2026-06-05T04:00:37.893600,1.00272034,.0008556,2.8377,97.7099,345.7804,30.2542,0,U,43683,999,2794,0,-.96E-6,0
GSAT-29,2018-089A,2026-06-05T03:30:40.765824,1.00270871,.0003767,0.0408,111.8439,319.5762,289.8692,0,U,43698,999,2766,0,.97E-6,0
ES'HAIL 2,2018-090A,2026-06-05T03:22:26.556096,1.00272936,.0001959,0.0174,3.7744,103.1702,223.0342,0,U,43700,999,2755,0,.156E-5,0
GEO-KOMPSAT-2A,2018-100A,2026-06-04T17:30:44.937792,1.00269705,.00023147,0.0505,138.9461,305.7918,199.3806,0,U,43823,999,2750,0,-.332E-5,0
GSAT-11,2018-100B,2026-06-05T03:36:10.240128,1.00271850,.0008032,0.0573,257.7616,187.0233,296.8547,0,U,43824,999,2735,0,-.65E-6,0
GSAT-7A,2018-105A,2026-06-04T15:34:18.789312,1.00271392,.00025594,0.0259,258.3664,156.3530,134.7808,0,U,43864,999,2732,0,.38E-6,0
COSMOS 2533,2018-107A,2026-06-04T19:01:38.554176,1.00273250,.00008982,0.0498,100.7474,342.9298,164.9672,0,U,43867,999,2732,0,-.27E-6,0
TJS-3,2018-110A,2026-06-03T16:01:22.374912,1.00274849,.0001866,2.5099,80.6531,66.8699,133.1554,0,U,43874,999,2728,0,-.204E-5,0
ZHONGXING-2D,2019-001A,2026-06-05T05:34:28.839072,1.00270942,.0000896,0.0437,81.9017,289.3273,96.0858,0,U,43920,999,5396,0,-.325E-5,0
HELLAS-SAT 4 & SGS-1,2019-007A,2026-06-04T18:01:32.409120,1.00273988,.00050693,0.0671,129.9278,7.6969,64.9767,0,U,44034,999,2724,0,.165E-5,0
GSAT-31,2019-007B,2026-06-05T03:28:40.959264,1.00270324,.0001562,0.0145,262.5539,108.1097,342.9532,0,U,44035,999,2684,0,.138E-5,0
NUSANTARA SATU,2019-009A,2026-06-04T22:48:41.966208,1.00270338,.0004384,0.0428,143.5719,327.1763,270.8341,0,U,44048,999,2664,0,-.222E-5,0
ZHONGXING-6C,2019-012A,2026-06-05T00:26:56.643360,1.00270636,.0013505,0.1347,80.3706,329.6447,340.6121,0,U,44067,999,2661,0,-.323E-5,0
WGS 10 (USA 291),2019-014A,2026-06-04T22:24:14.311008,1.00272516,.0000421,0.0172,356.8838,33.2396,259.6215,0,U,44071,999,2649,0,.59E-6,0
TIANLIAN 2-01,2019-017A,2026-06-05T03:37:02.657280,1.00271878,.0000996,0.5083,83.1231,358.8737,302.8791,0,U,44076,999,2652,0,-.95E-6,0
ARABSAT-6A,2019-021A,2026-06-05T03:59:38.605056,1.00272873,.0000898,0.0520,9.5872,44.1254,290.2957,0,U,44186,999,2603,0,.166E-5,0
BEIDOU-3 IGSO-1,2019-023A,2026-06-04T14:06:37.446624,1.00295778,.00254705,58.6768,37.7810,225.7549,318.3782,0,U,44204,999,708,0,-.211E-5,0
BEIDOU-2 G8,2019-027A,2026-06-05T03:56:15.813888,1.00275683,.0010719,1.6277,74.4903,284.3147,98.3439,0,U,44231,999,2596,0,-.234E-5,0
YAMAL 601,2019-031A,2026-06-04T21:06:41.028192,1.00272819,.00025719,0.0176,357.6754,81.6044,179.7158,0,U,44307,999,2580,0,.132E-5,0
AT&T T-16,2019-034A,2026-06-04T23:20:53.877120,1.00272225,.0000373,0.0247,65.3119,219.6139,217.8574,0,U,44333,999,2551,0,-.103E-5,0
EUTELSAT 7C,2019-034B,2026-06-05T03:20:38.766048,1.00272377,.0003403,0.0743,175.0991,244.7473,250.8953,0,U,44334,999,671,0,.61E-6,0
BEIDOU-3 IGSO-2,2019-035A,2026-06-04T21:27:54.590976,1.00270541,.00397251,55.2445,158.9697,216.0101,320.2492,0,U,44337,999,2554,0,-.7E-6,0
COSMOS 2539,2019-048A,2026-06-05T03:18:26.940384,1.00275193,.0000624,0.0382,93.4834,354.0087,227.7105,0,U,44457,999,2510,0,.94E-6,0
EDRS-C,2019-049A,2026-06-04T21:05:00.500064,1.00271120,.0001256,0.0048,11.5532,89.2326,251.2899,0,U,44475,999,2508,0,-.25E-5,0
INTELSAT 39 (IS-39),2019-049B,2026-06-04T15:25:19.326720,1.00271423,.00005827,0.0188,328.9935,359.4045,217.9725,0,U,44476,999,2500,0,.45E-6,0
AMOS-17,2019-050A,2026-06-05T03:20:38.766048,1.00273793,.0001798,0.0221,311.6265,151.6564,217.4575,0,U,44479,999,2506,0,.122E-5,0
AEHF-5 (USA 292),2019-051A,2026-06-05T04:17:21.789024,1.00269221,.0067128,1.4644,335.2431,1.2786,74.4969,0,U,44481,999,2514,0,-.246E-5,0
EUTELSAT 5 WEST B,2019-067A,2026-06-05T03:13:34.905792,1.00272101,.0003343,0.0651,339.4538,95.3016,222.2189,0,U,44624,999,2431,0,-.3E-6,0
TJS-4,2019-070A,2026-06-05T05:07:38.604000,1.00271200,.0005114,0.0210,277.2425,122.0512,14.8038,0,U,44637,999,2441,0,-.158E-5,0
BEIDOU-3 IGSO-3,2019-073A,2026-05-16T19:27:04.075776,1.00246251,.0042953,54.8566,281.2355,189.4588,170.3676,0,U,44709,999,2414,0,-.217E-5,0
TIBA-1,2019-080A,2026-06-05T03:59:38.605056,1.00273324,.0002243,0.0560,14.9590,71.6199,262.4252,0,U,44800,999,2393,0,.168E-5,0
INMARSAT GX5,2019-080B,2026-06-04T17:36:55.478880,1.00275786,.00022285,0.0361,356.0593,75.6456,96.7714,0,U,44801,999,666,0,.88E-6,0
JCSAT-18 (KACIFIC 1),2019-091A,2026-06-04T14:20:38.497920,1.00270519,.00001669,0.0154,247.0670,277.4292,93.7170,0,U,44868,999,2388,0,-.189E-5,0
ELEKTRO-L 3,2019-095A,2026-06-05T03:36:40.193280,1.00272865,.0001519,0.2264,81.1501,347.4551,315.0917,0,U,44903,999,2358,0,-.84E-6,0
SHIJIAN-20 (SJ-20),2019-097A,2026-06-05T02:48:38.735136,1.00273812,.0013784,4.8878,75.2106,51.8397,213.4147,0,U,44910,999,2357,0,.147E-5,0
TJS-5,2020-002A,2026-06-05T00:20:19.777056,1.00272080,.0007652,0.0413,282.2205,124.3703,319.4495,0,U,44978,999,2358,0,-.33E-5,0
GSAT-30,2020-005A,2026-06-05T03:38:40.002432,1.00270567,.0003601,0.0476,109.6004,332.4369,309.2264,0,U,45026,999,2338,0,-.152E-5,0
EUTELSAT KONNECT,2020-005B,2026-06-04T15:18:27.808704,1.00271610,.00008963,0.0728,98.8400,126.3177,264.7734,0,U,45027,999,2421,0,.62E-6,0
JCSAT-17,2020-013A,2026-06-05T00:28:26.499360,1.00272025,.0003014,5.3923,356.7469,74.8877,324.9479,0,U,45245,999,2311,0,-.307E-5,0
GEO-KOMPSAT-2B,2020-013B,2026-06-04T21:01:00.884352,1.00269225,.0000353,0.0369,198.4923,109.4268,28.9066,0,U,45246,999,2315,0,-.332E-5,0
BEIDOU-3 G2,2020-017A,2026-06-04T19:04:30.777888,1.00270930,.00028887,2.8392,47.1642,25.2494,186.9685,0,U,45344,999,2313,0,-.129E-5,0
AEHF-6 (USA 298),2020-022B,2026-06-05T00:29:03.939072,1.00277200,.0043164,2.5752,300.9763,17.6795,79.7375,0,U,45465,999,2289,0,-.286E-5,0
BEIDOU-3 G3,2020-040A,2026-06-05T02:03:58.709952,1.00274217,.000307,2.4176,67.4216,336.0146,351.6506,0,U,45807,999,2194,0,-.342E-5,0
APSTAR-6D,2020-045A,2026-06-04T12:29:18.753216,1.00269431,.0001778,0.0477,81.3890,31.0241,101.9302,0,U,45863,999,2173,0,-.306E-5,0
KOREASAT 116,2020-048A,2026-06-05T02:05:21.080256,1.00268872,.0001324,0.0177,296.5521,174.3741,290.1256,0,U,45920,999,2151,0,-.35E-5,0
EXPRESS 103,2020-053A,2026-06-04T10:35:53.342304,1.00272180,.00003394,0.0136,291.6750,108.4256,108.2692,0,U,45985,999,2152,0,-.269E-5,0
EXPRESS 80,2020-053B,2026-06-04T01:50:00.355200,1.00267793,.00018126,0.0187,300.4990,199.0641,220.4553,0,U,45986,999,2150,0,-.123E-5,0
BSAT-4B,2020-056A,2026-06-05T00:21:04.705056,1.00271435,.000409,0.0505,149.3059,321.0869,258.1667,0,U,46112,999,2126,0,-.338E-5,0
MEV-2,2020-056B,2026-06-05T03:14:42.297792,1.00267347,.000014,0.0046,325.4366,359.4790,336.3305,0,U,46113,999,8043,0,0,0
